{
  "type": "FeatureCollection",
  "features": [
    {
      "type": "Feature",
      "properties": {
        "OBJECT_NAME": "COSMOS 2251 DEB",
        "OBJECT_ID": "1993-036DQ",
        "EPOCH": "2025-11-29T00:40:38.277120",
        "MEAN_MOTION": 14.74330322,
        "ECCENTRICITY": 0.00146858,
        "INCLINATION": 74.0909,
        "RA_OF_ASC_NODE": 188.5402,
        "ARG_OF_PERICENTER": 137.3999,
        "MEAN_ANOMALY": 13.574,
        "EPHEMERIS_TYPE": 0,
        "CLASSIFICATION_TYPE": "U",
        "NORAD_CAT_ID": 33911,
        "ELEMENT_SET_NO": 999,
        "REV_AT_EPOCH": 88442,
        "BSTAR": 0.0018042166,
        "MEAN_MOTION_DOT": 0.00011961,
        "MEAN_MOTION_DDOT": 0,
        "norad_id": 33911,
        "name": "COSMOS 2251 DEB",
        "group": "cosmos-2251-debris",
        "longitude_deg": NaN,
        "latitude_deg": NaN,
        "alt_km": NaN,
        "orbit_class": "HEO",
        "timestamp": "2025-11-30T04:57:05.904694+00:00"
      },
      "geometry": {
        "type": "Point",
        "coordinates": [
          NaN,
          NaN
        ]
      }
    },
    {
      "type": "Feature",
      "properties": {
        "OBJECT_NAME": "COSMOS 2251 DEB",
        "OBJECT_ID": "1993-036DR",
        "EPOCH": "2025-11-29T15:19:12.779040",
        "MEAN_MOTION": 14.51781529,
        "ECCENTRICITY": 0.0011646,
        "INCLINATION": 74.0341,
        "RA_OF_ASC_NODE": 214.401,
        "ARG_OF_PERICENTER": 293.0284,
        "MEAN_ANOMALY": 93.2132,
        "EPHEMERIS_TYPE": 0,
        "CLASSIFICATION_TYPE": "U",
        "NORAD_CAT_ID": 33912,
        "ELEMENT_SET_NO": 999,
        "REV_AT_EPOCH": 88243,
        "BSTAR": 0.00067579,
        "MEAN_MOTION_DOT": 2.693e-05,
        "MEAN_MOTION_DDOT": 0,
        "norad_id": 33912,
        "name": "COSMOS 2251 DEB",
        "group": "cosmos-2251-debris",
        "longitude_deg": NaN,
        "latitude_deg": NaN,
        "alt_km": NaN,
        "orbit_class": "HEO",
        "timestamp": "2025-11-30T04:57:05.904702+00:00"
      },
      "geometry": {
        "type": "Point",
        "coordinates": [
          NaN,
          NaN
        ]
      }
    },
    {
      "type": "Feature",
      "properties": {
        "OBJECT_NAME": "COSMOS 2251 DEB",
        "OBJECT_ID": "1993-036DS",
        "EPOCH": "2025-11-29T15:52:02.913312",
        "MEAN_MOTION": 14.48404676,
        "ECCENTRICITY": 0.0048053,
        "INCLINATION": 74.0342,
        "RA_OF_ASC_NODE": 208.1454,
        "ARG_OF_PERICENTER": 313.1619,
        "MEAN_ANOMALY": 77.4525,
        "EPHEMERIS_TYPE": 0,
        "CLASSIFICATION_TYPE": "U",
        "NORAD_CAT_ID": 33913,
        "ELEMENT_SET_NO": 999,
        "REV_AT_EPOCH": 88268,
        "BSTAR": 0.00050121,
        "MEAN_MOTION_DOT": 1.876e-05,
        "MEAN_MOTION_DDOT": 0,
        "norad_id": 33913,
        "name": "COSMOS 2251 DEB",
        "group": "cosmos-2251-debris",
        "longitude_deg": NaN,
        "latitude_deg": NaN,
        "alt_km": NaN,
        "orbit_class": "HEO",
        "timestamp": "2025-11-30T04:57:05.904707+00:00"
      },
      "geometry": {
        "type": "Point",
        "coordinates": [
          NaN,
          NaN
        ]
      }
    },
    {
      "type": "Feature",
      "properties": {
        "OBJECT_NAME": "COSMOS 2251 DEB",
        "OBJECT_ID": "1993-036DT",
        "EPOCH": "2025-11-29T16:28:56.312832",
        "MEAN_MOTION": 13.71960274,
        "ECCENTRICITY": 0.0302318,
        "INCLINATION": 74.0918,
        "RA_OF_ASC_NODE": 36.6055,
        "ARG_OF_PERICENTER": 142.7587,
        "MEAN_ANOMALY": 338.0352,
        "EPHEMERIS_TYPE": 0,
        "CLASSIFICATION_TYPE": "U",
        "NORAD_CAT_ID": 33914,
        "ELEMENT_SET_NO": 999,
        "REV_AT_EPOCH": 83902,
        "BSTAR": 0.00068675,
        "MEAN_MOTION_DOT": 8.43e-06,
        "MEAN_MOTION_DDOT": 0,
        "norad_id": 33914,
        "name": "COSMOS 2251 DEB",
        "group": "cosmos-2251-debris",
        "longitude_deg": NaN,
        "latitude_deg": NaN,
        "alt_km": NaN,
        "orbit_class": "HEO",
        "timestamp": "2025-11-30T04:57:05.904713+00:00"
      },
      "geometry": {
        "type": "Point",
        "coordinates": [
          NaN,
          NaN
        ]
      }
    },
    {
      "type": "Feature",
      "properties": {
        "OBJECT_NAME": "COSMOS 2251 DEB",
        "OBJECT_ID": "1993-036DU",
        "EPOCH": "2025-11-29T16:17:34.165824",
        "MEAN_MOTION": 14.35026697,
        "ECCENTRICITY": 0.010524,
        "INCLINATION": 74.0445,
        "RA_OF_ASC_NODE": 58.0413,
        "ARG_OF_PERICENTER": 153.9684,
        "MEAN_ANOMALY": 325.8272,
        "EPHEMERIS_TYPE": 0,
        "CLASSIFICATION_TYPE": "U",
        "NORAD_CAT_ID": 33915,
        "ELEMENT_SET_NO": 999,
        "REV_AT_EPOCH": 87570,
        "BSTAR": 0.00051491,
        "MEAN_MOTION_DOT": 1.536e-05,
        "MEAN_MOTION_DDOT": 0,
        "norad_id": 33915,
        "name": "COSMOS 2251 DEB",
        "group": "cosmos-2251-debris",
        "longitude_deg": NaN,
        "latitude_deg": NaN,
        "alt_km": NaN,
        "orbit_class": "HEO",
        "timestamp": "2025-11-30T04:57:05.904719+00:00"
      },
      "geometry": {
        "type": "Point",
        "coordinates": [
          NaN,
          NaN
        ]
      }
    },
    {
      "type": "Feature",
      "properties": {
        "OBJECT_NAME": "COSMOS 2251 DEB",
        "OBJECT_ID": "1993-036DV",
        "EPOCH": "2025-11-29T16:09:34.587936",
        "MEAN_MOTION": 13.68587073,
        "ECCENTRICITY": 0.0325521,
        "INCLINATION": 74.0531,
        "RA_OF_ASC_NODE": 62.0571,
        "ARG_OF_PERICENTER": 236.9714,
        "MEAN_ANOMALY": 241.7435,
        "EPHEMERIS_TYPE": 0,
        "CLASSIFICATION_TYPE": "U",
        "NORAD_CAT_ID": 33916,
        "ELEMENT_SET_NO": 999,
        "REV_AT_EPOCH": 83712,
        "BSTAR": 0.00058423,
        "MEAN_MOTION_DOT": 7.02e-06,
        "MEAN_MOTION_DDOT": 0,
        "norad_id": 33916,
        "name": "COSMOS 2251 DEB",
        "group": "cosmos-2251-debris",
        "longitude_deg": NaN,
        "latitude_deg": NaN,
        "alt_km": NaN,
        "orbit_class": "HEO",
        "timestamp": "2025-11-30T04:57:05.904726+00:00"
      },
      "geometry": {
        "type": "Point",
        "coordinates": [
          NaN,
          NaN
        ]
      }
    },
    {
      "type": "Feature",
      "properties": {
        "OBJECT_NAME": "COSMOS 2251 DEB",
        "OBJECT_ID": "1993-036DW",
        "EPOCH": "2025-11-29T17:07:02.276256",
        "MEAN_MOTION": 13.69327649,
        "ECCENTRICITY": 0.0330994,
        "INCLINATION": 74.1058,
        "RA_OF_ASC_NODE": 143.7516,
        "ARG_OF_PERICENTER": 247.5889,
        "MEAN_ANOMALY": 108.9858,
        "EPHEMERIS_TYPE": 0,
        "CLASSIFICATION_TYPE": "U",
        "NORAD_CAT_ID": 33917,
        "ELEMENT_SET_NO": 999,
        "REV_AT_EPOCH": 83555,
        "BSTAR": 0.00083396,
        "MEAN_MOTION_DOT": 1.04e-05,
        "MEAN_MOTION_DDOT": 0,
        "norad_id": 33917,
        "name": "COSMOS 2251 DEB",
        "group": "cosmos-2251-debris",
        "longitude_deg": NaN,
        "latitude_deg": NaN,
        "alt_km": NaN,
        "orbit_class": "HEO",
        "timestamp": "2025-11-30T04:57:05.904732+00:00"
      },
      "geometry": {
        "type": "Point",
        "coordinates": [
          NaN,
          NaN
        ]
      }
    },
    {
      "type": "Feature",
      "properties": {
        "OBJECT_NAME": "COSMOS 2251 DEB",
        "OBJECT_ID": "1993-036DZ",
        "EPOCH": "2025-11-28T23:32:50.769024",
        "MEAN_MOTION": 14.57886911,
        "ECCENTRICITY": 0.00384797,
        "INCLINATION": 74.0624,
        "RA_OF_ASC_NODE": 324.5633,
        "ARG_OF_PERICENTER": 333.336,
        "MEAN_ANOMALY": 26.5825,
        "EPHEMERIS_TYPE": 0,
        "CLASSIFICATION_TYPE": "U",
        "NORAD_CAT_ID": 33920,
        "ELEMENT_SET_NO": 999,
        "REV_AT_EPOCH": 87914,
        "BSTAR": 0.0019512143,
        "MEAN_MOTION_DOT": 9.016e-05,
        "MEAN_MOTION_DDOT": 0,
        "norad_id": 33920,
        "name": "COSMOS 2251 DEB",
        "group": "cosmos-2251-debris",
        "longitude_deg": NaN,
        "latitude_deg": NaN,
        "alt_km": NaN,
        "orbit_class": "HEO",
        "timestamp": "2025-11-30T04:57:05.904751+00:00"
      },
      "geometry": {
        "type": "Point",
        "coordinates": [
          NaN,
          NaN
        ]
      }
    },
    {
      "type": "Feature",
      "properties": {
        "OBJECT_NAME": "COSMOS 2251 DEB",
        "OBJECT_ID": "1993-036EB",
        "EPOCH": "2025-11-29T13:49:12.626976",
        "MEAN_MOTION": 14.49437912,
        "ECCENTRICITY": 0.0023241,
        "INCLINATION": 74.0458,
        "RA_OF_ASC_NODE": 172.4438,
        "ARG_OF_PERICENTER": 284.618,
        "MEAN_ANOMALY": 144.8551,
        "EPHEMERIS_TYPE": 0,
        "CLASSIFICATION_TYPE": "U",
        "NORAD_CAT_ID": 33922,
        "ELEMENT_SET_NO": 999,
        "REV_AT_EPOCH": 88387,
        "BSTAR": 0.00035958,
        "MEAN_MOTION_DOT": 1.353e-05,
        "MEAN_MOTION_DDOT": 0,
        "norad_id": 33922,
        "name": "COSMOS 2251 DEB",
        "group": "cosmos-2251-debris",
        "longitude_deg": NaN,
        "latitude_deg": NaN,
        "alt_km": NaN,
        "orbit_class": "HEO",
        "timestamp": "2025-11-30T04:57:05.904758+00:00"
      },
      "geometry": {
        "type": "Point",
        "coordinates": [
          NaN,
          NaN
        ]
      }
    }
  ]
}